STARLINK-1362
1 45538U 20025H   26090.46949604 -.00155624  00000+0 -52872-2 0  9993
2 45538  53.1624 359.8164 0001667  80.3074 279.8115 15.30593868328516
STARLINK-2354
1 47894U 21021AL  26090.49096256  .00017928  00000+0  60805-3 0  9994
2 47894  53.1524 166.8371 0000924  13.4749 346.6276 15.30620609279520
